      2.10          N: GNSS NAV DATA                        RINEX VERSION / TYPE
fic2rin                                 04/16/2018 00:08:50 PGM / RUN BY / DATE
                                                            END OF HEADER
10 18  4 15  6  0  0.0 1.789759844542e-04 2.728484105319e-12 0.000000000000e+00
    8.300000000000e+01-7.193750000000e+01 4.783413534088e-09 2.365744431117e+00
   -3.732740879059e-06 3.461732296273e-03 7.923692464828e-06 5.153666549683e+03
    2.160000000000e+04-1.173466444016e-07-9.554066660997e-01 1.490116119385e-08
    9.608496064200e-01 2.291562500000e+02-2.760951188471e+00-8.173911904812e-09
   -5.610948004220e-10 1.000000000000e+00 1.997000000000e+03 0.000000000000e+00
    2.400000000000e+00 0.000000000000e+00 1.862645149231e-09 8.300000000000e+01
    1.440600000000e+04 4.000000000000e+00
25 18  4 15  6  0  0.0-5.698287859559e-04-6.025402399246e-12 0.000000000000e+00
    1.000000000000e+01-9.562500000000e+01 4.112314151534e-09 2.727582663452e+00
   -4.975125193596e-06 7.450369070284e-03 6.785616278648e-06 5.153662998199e+03
    2.160000000000e+04-1.117587089539e-08 2.192496021300e+00-6.519258022308e-08
    9.744888524922e-01 2.560312500000e+02 8.404686480242e-01-7.948545374534e-09
   -3.878732993369e-10 1.000000000000e+00 1.997000000000e+03 0.000000000000e+00
    2.400000000000e+00 0.000000000000e+00 6.053596735001e-09 1.000000000000e+01
    1.440600000000e+04 4.000000000000e+00
13 18  4 15  6  0  0.0-9.510479867458e-05 2.273736754432e-13 0.000000000000e+00
    9.000000000000e+00 5.812500000000e+01 4.123386041294e-09-1.051244337118e+00
    3.028661012650e-06 3.511060145684e-03 1.204572618008e-05 5.153666833878e+03
    2.160000000000e+04-6.146728992462e-08 2.128293159381e-01 1.862645149231e-08
    9.691026792450e-01 1.487500000000e+02 1.606044177821e+00-7.873899408087e-09
    1.028614274485e-10 1.000000000000e+00 1.997000000000e+03 0.000000000000e+00
    2.400000000000e+00 0.000000000000e+00-1.117587089539e-08 9.000000000000e+00
    1.440600000000e+04 4.000000000000e+00
11 18  4 15  6  0  0.0-7.374226115644e-04 2.273736754432e-13 0.000000000000e+00
    1.300000000000e+01 9.559375000000e+01 5.938104488744e-09-2.517893294899e+00
    4.932284355164e-06 1.674709049985e-02 7.050111889839e-06 5.153622823715e+03
    2.160000000000e+04 1.937150955200e-07-2.419420775295e+00 1.396983861923e-07
    9.047916418493e-01 2.064062500000e+02 1.751867604729e+00-8.553570576262e-09
    7.196728344051e-10 1.000000000000e+00 1.997000000000e+03 0.000000000000e+00
    2.400000000000e+00 0.000000000000e+00-1.210719347000e-08 1.300000000000e+01
    1.440600000000e+04 4.000000000000e+00
19 18  4 15  6  0  0.0-4.435726441443e-04 2.728484105319e-12 0.000000000000e+00
    1.000000000000e+01 1.793750000000e+01 3.843731535418e-09-3.031322989970e+00
    7.469207048416e-07 9.816205012612e-03 1.282431185246e-05 5.153715503693e+03
    2.160000000000e+04 1.452863216400e-07-2.950597359263e+00-1.471489667892e-07
    9.802504134444e-01 1.406562500000e+02 1.154035873655e+00-7.498169471713e-09
    4.364467511876e-10 1.000000000000e+00 1.997000000000e+03 0.000000000000e+00
    2.400000000000e+00 0.000000000000e+00-1.536682248116e-08 1.000000000000e+01
    1.440600000000e+04 4.000000000000e+00
32 18  4 15  6  0  0.0-5.204677581787e-04 3.637978807092e-12 0.000000000000e+00
    1.200000000000e+01 5.862500000000e+01 4.331609000330e-09 1.120920572441e+00
    3.123655915260e-06 1.969704520889e-03 1.249089837074e-05 5.153663236618e+03
    2.160000000000e+04-3.539025783539e-08 8.659679055535e-02 3.911554813385e-08
    9.577446915336e-01 1.383750000000e+02-2.618154702915e+00-7.923901490874e-09
   -6.428839215530e-12 1.000000000000e+00 1.997000000000e+03 0.000000000000e+00
    2.400000000000e+00 0.000000000000e+00 4.656612873077e-10 1.200000000000e+01
    1.440600000000e+04 4.000000000000e+00
16 18  4 15  6  0  0.0 2.764770761132e-05-1.023181539495e-12 0.000000000000e+00
    1.100000000000e+01-9.190625000000e+01 3.924806341081e-09 1.293141443229e+00
   -4.688277840614e-06 1.004729524720e-02 8.257105946541e-06 5.153615159988e+03
    2.160000000000e+04-6.705522537231e-08 2.270638362505e+00 1.024454832077e-07
    9.873096778225e-01 2.365312500000e+02 4.990854292771e-01-7.938544957976e-09
   -5.810956335370e-10 1.000000000000e+00 1.997000000000e+03 0.000000000000e+00
    2.400000000000e+00 0.000000000000e+00-1.071020960808e-08 1.100000000000e+01
    1.440600000000e+04 4.000000000000e+00
22 18  4 15  6  0  0.0-3.583971410990e-04-1.307398633799e-11 0.000000000000e+00
    6.200000000000e+01-7.600000000000e+01 5.755239728836e-09-2.698541918245e-01
   -3.835186362267e-06 7.452522055246e-03 6.940215826035e-06 5.153539731979e+03
    2.160000000000e+04-5.029141902924e-08-1.009908660761e+00 7.450580596924e-09
    9.247477915945e-01 2.257500000000e+02-1.576579360459e+00-8.895013370153e-09
   -5.621662736246e-10 1.000000000000e+00 1.997000000000e+03 0.000000000000e+00
    2.400000000000e+00 0.000000000000e+00-1.769512891769e-08 6.200000000000e+01
    1.440600000000e+04 4.000000000000e+00
18 18  4 15  6  0  0.0-2.977438271046e-06 4.774847184308e-12 0.000000000000e+00
    3.100000000000e+01 5.525000000000e+01 5.313435611635e-09-2.092510033945e+00
    2.911314368248e-06 1.437107427046e-02 3.892928361893e-06 5.153659751892e+03
    2.160000000000e+04 2.309679985046e-07-2.041439041536e+00 3.725290298462e-09
    9.488234645229e-01 2.943125000000e+02 1.298659548280e+00-8.390706649469e-09
    5.289506043444e-10 1.000000000000e+00 1.997000000000e+03 0.000000000000e+00
    2.400000000000e+00 0.000000000000e+00-6.984919309616e-09 3.100000000000e+01
    1.440600000000e+04 4.000000000000e+00
14 18  4 15  6  0  0.0-9.616278111935e-05-3.410605131648e-13 0.000000000000e+00
    9.900000000000e+01 7.009375000000e+01 4.316251217760e-09 8.409733796311e-03
    3.747642040253e-06 9.615434682928e-03 1.210346817970e-05 5.153761056900e+03
    2.160000000000e+04-1.061707735062e-07 1.712426979286e-01 1.527369022369e-07
    9.616586118212e-01 1.485937500000e+02-1.958590497259e+00-8.082836682592e-09
    9.821837690392e-11 1.000000000000e+00 1.997000000000e+03 0.000000000000e+00
    2.400000000000e+00 0.000000000000e+00-9.778887033463e-09 9.900000000000e+01
    1.440600000000e+04 4.000000000000e+00
15 18  4 15  6  0  0.0-3.554443828762e-04 4.547473508865e-13 0.000000000000e+00
    6.200000000000e+01 3.556250000000e+01 4.989493546719e-09-4.998189451796e-01
    1.832842826843e-06 1.020101562608e-02 1.200474798679e-05 5.153730190277e+03
    2.160000000000e+04 7.078051567078e-08 1.220474810246e-02 1.657754182816e-07
    9.288962352053e-01 1.313437500000e+02 6.745259794117e-01-8.371420131822e-09
   -1.107188976008e-10 1.000000000000e+00 1.997000000000e+03 0.000000000000e+00
    2.400000000000e+00 0.000000000000e+00-1.117587089539e-08 6.200000000000e+01
    1.440600000000e+04 4.000000000000e+00
17 18  4 15  6  0  0.0-1.068222336471e-04 3.410605131648e-12 0.000000000000e+00
    5.100000000000e+01 1.303125000000e+01 3.856946371584e-09 2.170789598329e-01
    5.271285772324e-07 1.225474814419e-02 1.293420791626e-05 5.153796850204e+03
    2.160000000000e+04-1.676380634308e-07-2.997641723787e+00 3.352761268616e-08
    9.827781720385e-01 1.444062500000e+02-1.781079580108e+00-7.835326372794e-09
    3.539433145883e-10 1.000000000000e+00 1.997000000000e+03 0.000000000000e+00
    2.400000000000e+00 0.000000000000e+00-1.117587089539e-08 5.100000000000e+01
    1.440600000000e+04 4.000000000000e+00
12 18  4 15  6  0  0.0 3.395047970116e-04-2.160049916711e-12 0.000000000000e+00
    6.400000000000e+01-1.011250000000e+02 3.848731743697e-09-3.094833127994e+00
   -5.213543772697e-06 7.175040431321e-03 7.580965757370e-06 5.153612686157e+03
    2.160000000000e+04-5.587935447693e-09 2.251740473069e+00-6.519258022308e-08
    9.868638476861e-01 2.467187500000e+02 9.555602900530e-01-7.764966299157e-09
   -3.814444601214e-10 1.000000000000e+00 1.997000000000e+03 0.000000000000e+00
    2.400000000000e+00 0.000000000000e+00-1.257285475731e-08 6.400000000000e+01
    1.440600000000e+04 4.000000000000e+00
24 18  4 15  6  0  0.0-4.854705184698e-05-4.547473508865e-13 0.000000000000e+00
    1.310000000000e+02 6.703125000000e+01 5.129856536258e-09-1.568238342850e+00
    3.520399332047e-06 6.897913292050e-03 3.285706043243e-06 5.153651155472e+03
    2.160000000000e+04 7.078051567078e-08 1.100532800420e+00-1.136213541031e-07
    9.419215794089e-01 3.068437500000e+02 5.452043737677e-01-8.577857302187e-09
    2.971552348511e-10 1.000000000000e+00 1.997000000000e+03 0.000000000000e+00
    2.400000000000e+00 0.000000000000e+00 2.793967723846e-09 1.310000000000e+02
    1.440600000000e+04 4.000000000000e+00
23 18  4 15  6  0  0.0-2.179462462664e-04 2.273736754432e-13 0.000000000000e+00
    9.800000000000e+01 5.534375000000e+01 4.622335395966e-09-9.483109794502e-01
    2.792105078697e-06 1.227537274826e-02 1.302175223827e-05 5.153569904327e+03
    2.160000000000e+04 2.365559339523e-07 8.060833978662e-02 2.235174179077e-07
    9.441806087293e-01 1.176875000000e+02-2.374966934403e+00-8.114623720935e-09
   -1.535778257043e-11 1.000000000000e+00 1.997000000000e+03 0.000000000000e+00
    3.400000000000e+00 0.000000000000e+00-2.002343535423e-08 9.800000000000e+01
    1.440600000000e+04 4.000000000000e+00
21 18  4 15  6  0  0.0-4.072389565408e-04 4.661160346586e-12 0.000000000000e+00
    9.300000000000e+01 6.150000000000e+01 5.322007397256e-09 2.680797488513e+00
    2.969056367874e-06 2.447990095243e-02 3.533437848091e-06 5.153723955154e+03
    2.160000000000e+04 3.501772880554e-07-2.048306495410e+00-1.937150955200e-07
    9.430612657385e-01 2.980312500000e+02-1.568268707178e+00-8.247129240322e-09
    2.782258749387e-10 1.000000000000e+00 1.997000000000e+03 0.000000000000e+00
    2.400000000000e+00 0.000000000000e+00-1.024454832077e-08 9.300000000000e+01
    1.440600000000e+04 4.000000000000e+00
